STARLINK-31661          
1 59735U 24090F   26068.37613600  .00001996  00000+0  82050-4 0  9995
2 59735  43.0005 178.2217 0002021 270.9730  89.0890 15.27578506103479
HERMES-2                
1 63243U 25052AK  26068.92847372  .00009456  00000+0  34839-3 0  9999
2 63243  97.4004 324.4926 0006340  99.4160 260.7796 15.28021069 54859
